OBJECT_NAME,OBJECT_ID,EPOCH,MEAN_MOTION,ECCENTRICITY,INCLINATION,RA_OF_ASC_NODE,ARG_OF_PERICENTER,MEAN_ANOMALY,EPHEMERIS_TYPE,CLASSIFICATION_TYPE,NORAD_CAT_ID,ELEMENT_SET_NO,REV_AT_EPOCH,BSTAR,MEAN_MOTION_DOT,MEAN_MOTION_DDOT
STARLINK-31113,2023-211B,2026-06-14T22:55:53.751072,15.27573493,.0000524,43.0045,255.6756,266.7381,93.3411,0,U,58668,999,13734,-.10259E-4,-.544E-5,0
STARLINK-31128,2023-211C,2026-06-14T23:19:56.891136,15.27571357,.0002123,43.0120,255.7994,269.7416,90.3193,0,U,58669,999,13734,-.16506E-4,-.717E-5,0
STARLINK-31083,2023-211D,2026-06-14T22:50:20.806080,15.27569777,.0001017,43.0030,255.6469,283.2979,76.7759,0,U,58670,999,13734,.79882E-5,-.42E-6,0
STARLINK-30828,2023-211E,2026-06-14T12:35:39.716736,15.27571317,.0001646,43.0034,258.4674,285.7393,74.3277,0,U,58671,999,13727,.15767211E-4,.172E-5,0
STARLINK-31104,2023-211F,2026-06-13T00:00:02.000160,15.51670154,.0021743,42.9919,253.9576,17.6470,247.2533,0,U,58672,999,577,.53513605E-3,.32744E-3,0
STARLINK-31131,2023-211G,2026-06-12T12:54:09.776160,15.27588768,.00028605,43.0035,258.8318,278.4189,81.6338,0,U,58673,999,13837,.6075125E-4,.141E-4,0
STARLINK-31124,2023-211H,2026-06-14T23:01:26.829120,15.27569256,.0000891,43.0032,255.7022,272.8877,87.1873,0,U,58674,999,13734,.12482E-4,.81E-6,0
STARLINK-31126,2023-211J,2026-06-14T22:39:13.728096,15.27587024,.0001444,43.0024,255.5795,278.3903,81.6785,0,U,58675,999,13734,-.5826E-4,-.1865E-4,0
STARLINK-31066,2023-211K,2026-06-14T22:29:57.661152,15.27567054,.0001242,43.0048,41.8560,257.6409,102.4304,0,U,58676,999,13690,-.26867E-4,-.1001E-4,0
STARLINK-31058,2023-211L,2026-06-14T23:05:07.134432,15.27577240,.0004513,43.0121,255.7223,264.2933,95.7404,0,U,58677,999,13734,.76094E-6,-.243E-5,0
STARLINK-31125,2023-211M,2026-06-14T12:39:21.642912,15.27570938,.0002016,43.0027,258.4809,271.2385,88.8236,0,U,58678,999,13844,-.22322785E-4,-.876E-5,0
STARLINK-31110,2023-211N,2026-06-14T23:10:42.013920,15.27572031,.0000912,42.9978,255.7506,268.2884,91.7864,0,U,58679,999,13734,-.15175E-4,-.679E-5,0
STARLINK-31112,2023-211P,2026-06-14T23:21:47.585952,15.27577234,.0001469,43.0038,255.8098,288.3652,71.7040,0,U,58680,999,13852,-.13233E-4,-.626E-5,0
STARLINK-31147,2023-211Q,2026-06-14T12:44:54.511872,15.27575284,.00009464,42.9992,258.5153,267.5705,92.5039,0,U,58681,999,13727,.7533101E-5,-.55E-6,0
STARLINK-31144,2023-211R,2026-06-14T22:42:56.564064,15.27571271,.0001357,43.0044,255.5999,284.9025,75.1676,0,U,58682,999,13734,.14481E-4,.136E-5,0
STARLINK-31095,2023-211S,2026-06-14T22:28:20.493120,15.27576784,.0001206,43.0009,256.3886,273.4341,86.6372,0,U,58683,999,13860,.86034E-5,-.25E-6,0
STARLINK-31107,2023-211T,2026-06-14T22:37:33.357216,15.27602363,.0001177,43.0013,256.4344,267.4212,92.6505,0,U,58684,999,13733,.12488E-3,.3178E-4,0
STARLINK-31121,2023-211U,2026-06-14T22:48:29.049408,15.27584265,.0001817,42.9969,255.6309,273.2499,86.8145,0,U,58685,999,13734,.49358E-4,.1096E-4,0
STARLINK-31137,2023-211V,2026-06-14T12:41:12.056928,15.27594357,.00019231,43.0004,258.4882,264.3913,95.6720,0,U,58686,999,13727,.74007518E-3,.20168E-3,0
STARLINK-31106,2023-211Y,2026-06-13T23:56:51.438048,15.27594846,.00015967,43.0063,261.3853,257.6390,102.4283,0,U,58689,999,13719,.31504984E-3,.8421E-4,0
HULIANWANG JISHU SHIYAN 4A,2023-212A,2026-06-15T01:35:30.879168,13.41457395,.0001197,50.0019,351.5089,110.0189,250.0817,0,U,58691,999,12096,.58424E-4,-.96E-6,0
HULIANWANG JISHU SHIYAN 4B,2023-212B,2026-06-15T01:25:53.806656,13.41458563,.0001416,49.9987,351.8984,102.1374,257.9662,0,U,58692,999,12096,.52838E-4,-.99E-6,0
HULIANWANG JISHU SHIYAN 4C,2023-212C,2026-06-15T01:30:37.384416,13.41460289,.0001345,50.0001,352.0104,90.3071,269.7960,0,U,58693,999,12097,.4376E-4,-.104E-5,0
OVZON-3,2024-003A,2026-06-15T00:33:01.067328,1.00270071,.0000256,0.0130,27.1091,257.6308,46.5118,0,U,58698,999,742,0,0,0
TIANMU-1 15,2024-004A,2026-06-15T04:45:31.595904,15.27005569,.0006903,97.4661,352.3883,9.6188,350.5181,0,U,58700,999,13547,.18431E-3,.4813E-4,0
TIANMU-1 16,2024-004B,2026-06-15T04:29:30.674976,15.26730581,.0006035,97.4607,351.6163,14.7909,345.3505,0,U,58701,999,13547,.18558E-3,.4805E-4,0
TIANMU-1 17,2024-004C,2026-06-15T04:08:33.727776,15.26730697,.0005717,97.4635,352.0859,21.0752,339.0721,0,U,58702,999,13546,.19348E-3,.5012E-4,0
TIANMU-1 18,2024-004D,2026-06-15T05:09:24.986592,15.26988735,.0004251,97.4653,352.3824,21.7527,338.3892,0,U,58703,999,13547,.19063E-3,.4976E-4,0
STARLINK-11072 [DTC],2024-002A,2026-06-15T03:26:42.103104,15.69709487,.0001099,53.1586,153.6097,44.9796,315.1310,0,U,58705,999,14174,.10846E-4,.725E-5,0
STARLINK-11075 [DTC],2024-002B,2026-06-15T04:08:57.156000,15.69707913,.0002309,53.1608,153.0695,117.8790,242.2462,0,U,58706,999,14175,.29664E-4,.3004E-4,0
