STARLINK-31113          
1 58668U 23211B   26165.95548323 -.00000544  00000+0 -10259-4 0  9996
2 58668  43.0045 255.6756 0000524 266.7381  93.3411 15.27573493137346
STARLINK-31128          
1 58669U 23211C   26165.97218624 -.00000717  00000+0 -16506-4 0  9990
2 58669  43.0120 255.7994 0002123 269.7416  90.3193 15.27571357137346
STARLINK-31083          
1 58670U 23211D   26165.95162970 -.00000042  00000+0  79882-5 0  9999
2 58670  43.0030 255.6469 0001017 283.2979  76.7759 15.27569777137349
STARLINK-30828          
1 58671U 23211E   26165.52476524  .00000172  00000+0  15767-4 0  9990
2 58671  43.0034 258.4674 0001646 285.7393  74.3277 15.27571317137272
STARLINK-31104          
1 58672U 23211F   26164.00002315  .00032744  00000+0  53514-3 0  9997
2 58672  42.9919 253.9576 0021743  17.6470 247.2533 15.51670154  5773
STARLINK-31131          
1 58673U 23211G   26163.53761315  .00001410  00000+0  60751-4 0  9995
2 58673  43.0035 258.8318 0002860 278.4189  81.6338 15.27588768138374
STARLINK-31124          
1 58674U 23211H   26165.95933830  .00000081  00000+0  12482-4 0  9998
2 58674  43.0032 255.7022 0000891 272.8877  87.1873 15.27569256137346
STARLINK-31126          
1 58675U 23211J   26165.94390889 -.00001865  00000+0 -58260-4 0  9996
2 58675  43.0024 255.5795 0001444 278.3903  81.6785 15.27587024137343
STARLINK-31066          
1 58676U 23211K   26165.93747293 -.00001001  00000+0 -26867-4 0  9991
2 58676  43.0048  41.8560 0001242 257.6409 102.4304 15.27567054136904
STARLINK-31058          
1 58677U 23211L   26165.96188813 -.00000243  00000+0  76094-6 0  9997
2 58677  43.0121 255.7223 0004513 264.2933  95.7404 15.27577240137341
STARLINK-31125          
1 58678U 23211M   26165.52733383 -.00000876  00000+0 -22323-4 0  9995
2 58678  43.0027 258.4809 0002016 271.2385  88.8236 15.27570938138447
STARLINK-31110          
1 58679U 23211N   26165.96576405 -.00000679  00000+0 -15175-4 0  9992
2 58679  42.9978 255.7506 0000912 268.2884  91.7864 15.27572031137342
STARLINK-31112          
1 58680U 23211P   26165.97346743 -.00000626  00000+0 -13233-4 0  9990
2 58680  43.0038 255.8098 0001469 288.3652  71.7040 15.27577234138529
STARLINK-31147          
1 58681U 23211Q   26165.53118648 -.00000055  00000+0  75331-5 0  9997
2 58681  42.9992 258.5153 0000946 267.5705  92.5039 15.27575284137279
STARLINK-31144          
1 58682U 23211R   26165.94648801  .00000136  00000+0  14481-4 0  9999
2 58682  43.0044 255.5999 0001357 284.9025  75.1676 15.27571271137344
STARLINK-31095          
1 58683U 23211S   26165.93634830 -.00000025  00000+0  86034-5 0  9998
2 58683  43.0009 256.3886 0001206 273.4341  86.6372 15.27576784138601
STARLINK-31107          
1 58684U 23211T   26165.94274719  .00003178  00000+0  12488-3 0  9997
2 58684  43.0013 256.4344 0001177 267.4212  92.6505 15.27602363137331
STARLINK-31121          
1 58685U 23211U   26165.95033622  .00001096  00000+0  49358-4 0  9999
2 58685  42.9969 255.6309 0001817 273.2499  86.8145 15.27584265137341
STARLINK-31137          
1 58686U 23211V   26165.52861177  .00020168  00000+0  74008-3 0  9997
2 58686  43.0004 258.4882 0001923 264.3913  95.6720 15.27594357137273
STARLINK-31106          
1 58689U 23211Y   26164.99781757  .00008421  00000+0  31505-3 0  9998
2 58689  43.0063 261.3853 0001596 257.6390 102.4283 15.27594846137197
HULIANWANG JISHU SHIYAN*
1 58691U 23212A   26166.06632962 -.00000096  00000+0  58424-4 0  9996
2 58691  50.0019 351.5089 0001197 110.0189 250.0817 13.41457395120968
HULIANWANG JISHU SHIYAN*
1 58692U 23212B   26166.05965054 -.00000099  00000+0  52838-4 0  9993
2 58692  49.9987 351.8984 0001416 102.1374 257.9662 13.41458563120961
HULIANWANG JISHU SHIYAN*
1 58693U 23212C   26166.06293269 -.00000104  00000+0  43760-4 0  9998
2 58693  50.0001 352.0104 0001345  90.3071 269.7960 13.41460289120973
OVZON-3                 
1 58698U 24003A   26166.02292902  .00000000  00000+0  00000+0 0  9990
2 58698   0.0130  27.1091 0000256 257.6308  46.5118  1.00270071  7422
TIANMU-1 15             
1 58700U 24004A   26166.19828236  .00004813  00000+0  18431-3 0  9995
2 58700  97.4661 352.3883 0006903   9.6188 350.5181 15.27005569135470
TIANMU-1 16             
1 58701U 24004B   26166.18716059  .00004805  00000+0  18558-3 0  9995
2 58701  97.4607 351.6163 0006035  14.7909 345.3505 15.26730581135478
TIANMU-1 17             
1 58702U 24004C   26166.17261259  .00005012  00000+0  19348-3 0  9991
2 58702  97.4635 352.0859 0005717  21.0752 339.0721 15.26730697135467
TIANMU-1 18             
1 58703U 24004D   26166.21487253  .00004976  00000+0  19063-3 0  9993
2 58703  97.4653 352.3824 0004251  21.7527 338.3892 15.26988735135472
STARLINK-11072 [DTC]    
1 58705U 24002A   26166.14354286  .00000725  00000+0  10846-4 0  9993
2 58705  53.1586 153.6097 0001099  44.9796 315.1310 15.69709487141741
STARLINK-11075 [DTC]    
1 58706U 24002B   26166.17288375  .00003004  00000+0  29664-4 0  9993
2 58706  53.1608 153.0695 0002309 117.8790 242.2462 15.69707913141755
